Location,postal_town,city,county,country,lat,lng,confidence
"NHS Airedale, Wharfedale and Craven Clinical Commissioning Group, UK",Keighley,West Yorkshire,West Yorkshire,GB,53.8998684,-1.9499696,9.0
"NHS Ashford Clinical Commissioning Group, UK",,Grays,,GB,51.4756751,0.3247842,9.0
"NHS Aylesbury Vale Clinical Commissioning Group, UK",Aylesbury,Aylesbury,,GB,51.8223943,-0.8264379999999999,9.0
"NHS Barking and Dagenham Clinical Commissioning Group, UK",Romford,Romford,Greater London,GB,51.57995820000001,0.17950329999999998,9.0
"NHS Barnet Clinical Commissioning Group, UK",London,London,Greater London,GB,51.6254278,-0.1524428,9.0
"NHS Barnsley Clinical Commissioning Group, UK",Barnsley,Barnsley,South Yorkshire,GB,53.5590614,-1.4965226999999999,9.0
"NHS Basildon and Brentwood Clinical Commissioning Group, UK",Basildon,Basildon,Essex,GB,51.59115809999999,0.4953693,9.0
"NHS Bassetlaw Clinical Commissioning Group, UK",Retford,Retford,Nottinghamshire,GB,53.32634470000001,-0.9544345999999999,9.0
"NHS Bath and North East Somerset Clinical Commissioning Group, UK",Bath,Trust HQ,Bath and North East Somerset,GB,51.35778699999999,-2.372918,9.0
"NHS Bedfordshire Clinical Commissioning Group, UK",Bedford,Bedford,,GB,52.0085361,-0.4082652,9.0
"NHS Bexley Clinical Commissioning Group, UK",Bexleyheath,Bexleyheath,Greater London,GB,51.455779,0.1535,9.0
"NHS Birmingham CrossCity Clinical Commissioning Group, UK",Birmingham,Birmingham,West Midlands,GB,52.47172729999999,-1.9359171000000002,9.0
"NHS Birmingham South and Central Clinical Commissioning Group, UK",,Birmingham,,GB,52.483275,-1.896838,9.0
"NHS Blackburn with Darwen Clinical Commissioning Group, UK",Blackburn,Blackburn,Blackburn with Darwen,GB,53.73381999999999,-2.4556392000000002,9.0
"NHS Blackpool Clinical Commissioning Group, UK",Blackpool,Blackpool,Blackpool,GB,53.80567679999999,-3.0486881,9.0
"NHS Bolton Clinical Commissioning Group, UK",Bolton,Bolton,Greater Manchester,GB,53.578433499999996,-2.424152,9.0
"NHS Bracknell and Ascot Clinical Commissioning Group, UK",Windsor,Windsor,Windsor and Maidenhead,GB,51.47330770000001,-0.6155565,9.0
"NHS Bradford City Clinical Commissioning Group, UK",Bradford,Bradford,West Yorkshire,GB,53.79619599999999,-1.7490561999999998,9.0
"NHS Bradford Districts Clinical Commissioning Group, UK",Bradford,Bradford,West Yorkshire,GB,53.79619599999999,-1.7490561999999998,9.0
"NHS Brent Clinical Commissioning Group, UK",Wembley,Wembley,Greater London,GB,51.55018279999999,-0.30587470000000005,9.0
"NHS Brighton and Hove Clinical Commissioning Group, UK",Hove,Hove,Brighton and Hove,GB,50.828464600000004,-0.17040339999999998,9.0
"NHS Bristol Clinical Commissioning Group, UK",Bristol,Bristol,City of Bristol,GB,51.4600794,-2.5915505000000003,9.0
"NHS Bromley Clinical Commissioning Group, UK",Beckenham,Beckenham,Kent,GB,51.4052254,-0.0327132,9.0
"NHS Bury Clinical Commissioning Group, UK",,Bury,,GB,53.5903464,-2.2989476000000004,9.0
"NHS Calderdale Clinical Commissioning Group, UK",Halifax,Halifax,West Yorkshire,GB,53.729207099999996,-1.8668751000000001,9.0
"NHS Cambridgeshire and Peterborough Clinical Commissioning Group, UK",Cambridge,Cambridge,Cambridgeshire,GB,52.1915017,0.1328335,9.0
"NHS Camden Clinical Commissioning Group, UK",London,London,Greater London,GB,51.52535820000001,-0.1392636,9.0
"NHS Cannock Chase Clinical Commissioning Group, UK",Cannock,Cannock,,GB,52.69214969999999,-2.0277339,9.0
"NHS Canterbury and Coastal Clinical Commissioning Group, UK",,Canterbury,,GB,51.2835354,1.0927661,9.0
"NHS Castle Point and Rochford Clinical Commissioning Group, UK",Rayleigh,Rayleigh,Essex,GB,51.58403509999999,0.6029391,9.0
"NHS Central London (Westminster) Clinical Commissioning Group, UK",London,London,Greater London,GB,51.52289329999999,-0.1515062,9.0
"NHS Chiltern Clinical Commissioning Group, UK",Amersham,Amersham,,GB,51.675089,-0.6020449999999999,9.0
"NHS Chorley and South Ribble Clinical Commissioning Group, UK",Leyland,Leyland,Lancashire,GB,53.7080745,-2.6950065,9.0
"NHS City and Hackney Clinical Commissioning Group, UK",London,London,Greater London,GB,51.534068,-0.07735199999999999,9.0
"NHS Coastal West Sussex Clinical Commissioning Group, UK",Worthing,Worthing,,GB,50.81813229999999,-0.4111287,9.0
"NHS Corby Clinical Commissioning Group, UK",Corby,Corby,Northamptonshire,GB,52.49229829999999,-0.6842332999999999,5.0
"NHS Coventry and Rugby Clinical Commissioning Group, UK",Coventry,Coventry,West Midlands,GB,52.40099179999999,-1.5093216999999999,9.0
"NHS Crawley Clinical Commissioning Group, UK",Crawley,Crawley,,GB,51.116881299999996,-0.1956361,9.0
"NHS Croydon Clinical Commissioning Group, UK",Croydon,Croydon,,GB,51.371610499999996,-0.0998185,9.0
"NHS Darlington Clinical Commissioning Group, UK",London,London,Greater London,GB,51.52535820000001,-0.1392636,9.0
"NHS Dartford, Gravesham and Swanley Clinical Commissioning Group, UK",Gravesend,Gravesend,Kent,GB,51.43981480000001,0.36835650000000003,9.0
"NHS Doncaster Clinical Commissioning Group, UK",Doncaster,Doncaster,South Yorkshire,GB,53.510932999999994,-1.131069,9.0
"NHS Dorset Clinical Commissioning Group, UK",,Dorchester,,GB,50.714817,-2.4443947999999995,9.0
"NHS Dudley Clinical Commissioning Group, UK",Brierley Hill,Brierley Hill,West Midlands,GB,52.4821247,-2.1176131000000002,9.0
"NHS Durham Dales, Easington and Sedgefield Clinical Commissioning Group, UK",Stockton-on-Tees,Sedgefield,County Durham,GB,54.6627942,-1.4510857,9.0
"NHS Ealing Clinical Commissioning Group, UK",London,London,Greater London,GB,51.5132043,-0.3088468,9.0
"NHS East and North Hertfordshire Clinical Commissioning Group, UK",Stevenage,Stevenage,,GB,51.92422029999999,-0.2118406,9.0
"NHS East Lancashire Clinical Commissioning Group, UK",Nelson,Nelson,Lancashire,GB,53.8478939,-2.2027181000000002,9.0
"NHS East Leicestershire and Rutland Clinical Commissioning Group, UK",Leicester,Leicester,,GB,52.656051,-1.1878309999999999,9.0
"NHS East Riding of Yorkshire Clinical Commissioning Group, UK",Hull,Willerby,East Riding of Yorkshire,GB,53.7632579,-0.4541516,9.0
"NHS East Staffordshire Clinical Commissioning Group, UK",Burton-on-Trent,Burton-on-Trent,,GB,52.79481639999999,-1.6698168000000002,9.0
"NHS East Surrey Clinical Commissioning Group, UK",Oxted,Oxted,Surrey,GB,51.25718579999999,-0.0002693,9.0
"NHS Eastbourne, Hailsham and Seaford Clinical Commissioning Group, UK",,Seaford,East Sussex,GB,50.7734669,0.101108,6.0
"NHS Eastern Cheshire Clinical Commissioning Group, UK",Macclesfield,Macclesfield,Cheshire East,GB,53.262414899999996,-2.1386522,9.0
"NHS Enfield Clinical Commissioning Group, UK",Barnet,Barnet,Greater London,GB,51.65067620000001,-0.1484198,9.0
"NHS Erewash Clinical Commissioning Group, UK",Derby,Derby,Derby,GB,52.92560839999999,-1.4682589,9.0
"NHS Fareham and Gosport Clinical Commissioning Group, UK",Fareham,Portsmouth,Portsmouth,GB,50.8576327,-1.1075926,9.0
"NHS Fylde and Wyre Clinical Commissioning Group, UK",Preston,Wesham,Lancashire,GB,53.78840899999999,-2.8811400000000003,9.0
"NHS Gloucestershire Clinical Commissioning Group, UK",,Brockworth,,GB,51.8487636,-2.1752662999999997,9.0
"NHS Great Yarmouth and Waveney Clinical Commissioning Group, UK",Beccles,Beccles,Suffolk,GB,52.4619927,1.5675113999999999,9.0
"NHS Greater Huddersfield Clinical Commissioning Group, UK",Dewsbury,Dewsbury,West Yorkshire,GB,53.692018299999994,-1.6267128,9.0
"NHS Greater Preston Clinical Commissioning Group, UK",Leyland,Leyland,Lancashire,GB,53.7080745,-2.6950065,9.0
"NHS Greenwich Clinical Commissioning Group, UK",London,London,Greater London,GB,51.4891578,0.06494169999999999,9.0
"NHS Guildford and Waverley Clinical Commissioning Group, UK",Guildford,Guildford,,GB,51.238282,-0.5758227,9.0
"NHS Halton Clinical Commissioning Group, UK",Runcorn,Runcorn,,GB,53.33387339999999,-2.7232762999999998,9.0
"NHS Hambleton, Richmondshire and Whitby Clinical Commissioning Group, UK",Northallerton,Northallerton,,GB,54.3482029,-1.4330225,9.0
"NHS Hammersmith and Fulham Clinical Commissioning Group, UK",London,London,Greater London,GB,51.5228364,-0.1514422,9.0
"NHS Hardwick Clinical Commission Group, Chesterfield, S41 7PF, UK",Chesterfield,Chesterfield,Derbyshire,GB,53.2389397,-1.4312232,9.0
"NHS Haringey Clinical Commissioning Group, UK",London,London,Greater London,GB,51.5975763,-0.1105569,9.0
"NHS Harrogate and Rural District Clinical Commissioning Group, UK",Knaresborough,Knaresborough,North Yorkshire,GB,54.00157289999999,-1.4437392,9.0
"NHS Harrow Clinical Commissioning Group, UK",Harrow,Harrow,,GB,51.579191200000004,-0.3381862,9.0
"NHS Hartlepool and Stockton-on-Tees Clinical Commissioning Group, UK",Billingham,Stockton-on-Tees,Stockton-on-Tees,GB,54.608199899999995,-1.2947803,9.0
"NHS Hastings and Rother Clinical Commissioning Group, UK",Bexhill-on-Sea,Bexhill-on-Sea,East Sussex,GB,50.850598,0.475371,9.0
"NHS Havering Clinical Commissioning Group, UK",Romford,Romford,Greater London,GB,51.57995820000001,0.17950329999999998,9.0
"NHS Herefordshire Clinical Commissioning Group, UK",Hereford,Hereford,Herefordshire,GB,52.055022799999996,-2.7123162,9.0
"NHS Herts Valleys Clinical Commissioning Group, UK",,Hemel Hempstead,,GB,51.7539678,-0.4727447,9.0
"NHS Heywood, Middleton and Rochdale Clinical Commissioning Group, UK",Rochdale,Number One Riverside,Greater Manchester,GB,53.6173164,-2.1539490000000003,9.0
"NHS High Weald Lewes Havens Clinical Commissioning Group, UK",Lewes,Lewes,East Sussex,GB,50.8732811,0.014155100000000002,9.0
"NHS Hillingdon Clinical Commissioning Group, UK",Uxbridge,Uxbridge,Greater London,GB,51.544061299999996,-0.4783353,9.0
"NHS Horsham and Mid Sussex Clinical Commissioning Group, UK",Horsham,Horsham,West Sussex,GB,51.062883,-0.325858,6.0
"NHS Hounslow Clinical Commissioning Group, UK",Hounslow,Hounslow,Greater London,GB,51.46837360000001,-0.3674428,9.0
"NHS Hull Clinical Commissioning Group, UK",Hull,Hull,Kingston upon Hull,GB,53.744960999999996,-0.3303724,9.0
"NHS Ipswich and East Suffolk Clinical Commissioning Group, UK",Ipswich,Ipswich,Suffolk,GB,52.05398889999999,1.1434468,9.0
"NHS Isle of Wight Clinical Commissioning Group, UK",Newport,Newport,,GB,50.712672399999995,-1.2947171,9.0
"NHS Islington Clinical Commissioning Group, UK",London,London,Greater London,GB,51.54532349999999,-0.10455260000000001,9.0
"NHS Kernow Clinical Commissioning Group, UK",Saint Austell,Saint Austell,Cornwall,GB,50.33976989999999,-4.794761299999999,9.0
"NHS Kingston Clinical Commissioning Group, Teddington, TW11 8HU, UK",Teddington,Teddington,Greater London,GB,51.4275441,-0.3260471,9.0
"NHS Knowsley Clinical Commissioning Group, UK",Liverpool,Liverpool,,GB,53.41036210000001,-2.8409412,9.0
"NHS Lambeth Clinical Commissioning Group, UK",London,London,Greater London,GB,51.500035800000006,-0.1138893,9.0
"NHS Leeds North Clinical Commissioning Group, UK",Leeds,Leeds,,GB,53.83868760000001,-1.610789,9.0
"NHS Leeds South and East Clinical Commissioning Group, UK",Leeds,Leeds,West Yorkshire,GB,53.797088,-1.42567,9.0
"NHS Leeds West Clinical Commissioning Group, UK",Leeds,Leeds,,GB,53.83868760000001,-1.610789,9.0
"NHS Leicester City Clinical Commissioning Group, UK",Leicester,Leicester,Leicester,GB,52.6310784,-1.1273457,9.0
"NHS Lewisham Clinical Commissioning Group, UK",London,London,,GB,51.444705600000006,-0.0210318,9.0
"NHS Lincolnshire East Clinical Commissioning Group, UK",Lincoln,Bracebridge Heath,Lincolnshire,GB,53.198258900000006,-0.5403585999999999,9.0
"NHS Lincolnshire West Clinical Commissioning Group, UK",Lincoln,Bracebridge Heath,Lincolnshire,GB,53.1988356,-0.5404584000000001,9.0
"NHS Liverpool Clinical Commissioning Group, UK",Liverpool,Liverpool,Merseyside,GB,53.4047431,-2.978062,9.0
"NHS Luton Clinical Commissioning Group, UK",Luton,Luton,,GB,51.880610600000004,-0.41697619999999996,9.0
"NHS Manchester Clinical Commissioning Group, UK",Manchester,Manchester,Greater Manchester,GB,53.44768489999999,-2.2452403,9.0
"NHS Mansfield and Ashfield Clinical Commissioning Group, UK",Masnfield,Rainworth,Nottinghamshire,GB,53.1286435,-1.1481306,9.0
"NHS Medway Clinical Commissioning Group, UK",Chatham,Chatham,,GB,51.3995238,0.5363401999999999,9.0
"NHS Merton Clinical Commissioning Group, UK",London,London,Greater London,GB,51.419386900000006,-0.2001506,9.0
"NHS Mid Essex Clinical Commissioning Group, UK",Chelmsford,Chelmsford,,GB,51.7496999,0.5086137,9.0
"NHS Milton Keynes Clinical Commissioning Group, UK",Milton Keynes,Milton Keynes,,GB,52.000937,-0.7394609999999999,9.0
"NHS Morecambe Bay Clinical Commission Group, Preston, PR26 6TR, UK",,,Lancashire,GB,54.0840252,-2.8594133,7.0
"NHS Nene Clinical Commissioning Group, UK",Northampton,Moulton Park,Northamptonshire,GB,52.2768171,-0.8730561,9.0
"NHS Newark and Sherwood Clinical Commissioning Group, UK",Newark,Balderton,Nottinghamshire,GB,53.0531661,-0.7877479000000001,9.0
"NHS Newbury and District Clinical Commissioning Group, UK",Wakefield,Wakefield,West Yorkshire,GB,53.6801877,-1.4963808,9.0
"NHS Newcastle Gateshead Clinical Commissioning Group, UK",Newcastle upon Tyne,Newcastle upon Tyne,,GB,54.9696784,-1.7127091,9.0
"NHS Newham Clinical Commissioning Group, UK",London,London,Greater London,GB,51.5400923,-0.001498,9.0
"NHS North and West Reading Clinical Commissioning Group, UK",Reading,Reading,Reading,GB,51.4468653,-0.9985014,9.0
"NHS North Cumbria Clinical Commission Group, Penrith, CA1 2SE, UK",Carlisle,Carlisle,Cumbria,GB,54.89220329999999,-2.8953396000000002,9.0
"NHS North Derbyshire Clinical Commissioning Group, UK",Derby,Derby,Derby,GB,52.92560839999999,-1.4682589,9.0
"NHS North Durham Clinical Commissioning Group, UK",Chester le Street,Pelton,,GB,54.873389100000004,-1.6034936000000002,9.0
"NHS North East Essex Clinical Commissioning Group, UK",,Colchester,,GB,51.9220433,0.9305798,9.0
"NHS North East Hampshire and Farnham Clinical Commissioning Group, UK",Aldershot,Aldershot,Hampshire,GB,51.2542453,-0.7661281999999999,9.0
"NHS North East Lincolnshire Clinical Commissioning Group, UK",,Grimsby,,GB,53.5652571,-0.08124189999999999,9.0
"NHS North Hampshire Clinical Commissioning Group, UK",Basingstoke,Chineham,Hampshire,GB,51.2924537,-1.0664812,9.0
"NHS North Kirklees Clinical Commissioning Group, UK",Dewsbury,Dewsbury,West Yorkshire,GB,53.692018299999994,-1.6267128,9.0
"NHS North Lincolnshire Clinical Commissioning Group, UK",Brigg,Brigg,,GB,53.552814399999995,-0.4858907,9.0
"NHS North Norfolk Clinical Commissioning Group, UK",,Norwich,,GB,52.629298999999996,1.3702687,9.0
"NHS North Somerset Clinical Commissioning Group, UK",Bristol,Bristol,City of Bristol,GB,51.4600794,-2.5915505000000003,9.0
"NHS North Staffordshire Clinical Commissioning Group, UK",,Stoke,,GB,53.0219014,-2.1781229,9.0
"NHS North Tyneside Clinical Commissioning Group, UK",North Shields,North Shields,Tyne and Wear,GB,55.0098557,-1.490358,9.0
"NHS North West Surrey Clinical Commissioning Group, UK",Weybridge,Weybridge,Surrey,GB,51.37283540000001,-0.4618268,9.0
"NHS Northern, Eastern and Western Devon Clinical Commissioning Group, UK",Exeter,Exeter,,GB,50.7022493,-3.4779071000000004,9.0
"NHS Northumberland Clinical Commissioning Group, UK",Morpeth,Morpeth,Northumberland,GB,55.15293279999999,-1.6839651999999998,9.0
"NHS Norwich Clinical Commissioning Group, UK",Norwich,Norwich,Norfolk,GB,52.6285345,1.2916276000000002,9.0
"NHS Nottingham City Clinical Commissioning Group, UK",Nottingham,Nottingham,Nottinghamshire,GB,52.9517892,-1.1558228000000002,9.0
"NHS Nottingham North and East Clinical Commissioning Group, UK",Nottingham,Arnold,Nottinghamshire,GB,52.99750890000001,-1.1335024999999999,9.0
"NHS Nottingham West Clinical Commissioning Group, UK",Nottingham,Arnold,Nottinghamshire,GB,52.99750890000001,-1.1335024999999999,9.0
"NHS Oldham Clinical Commissioning Group, Oldham, OL9 6EE, UK",Oldham,Oldham,Greater Manchester,GB,53.5482051,-2.1302583,9.0
"NHS Oxfordshire Clinical Commissioning Group, UK",Oxford,Oxford,Oxfordshire,GB,51.729095,-1.2080863000000002,9.0
"NHS Portsmouth Clinical Commissioning Group, UK",Southsea,Southsea,,GB,50.79415239999999,-1.049124,9.0
"NHS Redbridge Clinical Commissioning Group, UK",Ilford,Ilford,Greater London,GB,51.5568402,0.06664760000000002,9.0
"NHS Redditch and Bromsgrove Clinical Commissioning Group, UK",Bromsgrove,Bromsgrove,Worcestershire,GB,52.3516718,-2.0588207,9.0
"NHS Richmond Clinical Commissioning Group, UK",Teddington,Teddington,Greater London,GB,51.4275441,-0.3260471,9.0
"NHS Rotherham Clinical Commissioning Group, UK",Rotherham,Bramley,South Yorkshire,GB,53.4207787,-1.2546232,9.0
"NHS Rushcliffe Clinical Commissioning Group, UK",Nottingham,Ruddington,Nottinghamshire,GB,52.89412100000001,-1.141141,9.0
"NHS Salford Clinical Commissioning Group, UK",Salford,Salford,Greater Manchester,GB,53.490458499999995,-2.2879887,9.0
"NHS Sandwell and West Birmingham Clinical Commissioning Group, UK",West Bromwich,West Bromwich,West Midlands,GB,52.523247999999995,-2.002354,9.0
"NHS Scarborough and Ryedale Clinical Commissioning Group, UK",Scarborough,Scarborough,North Yorkshire,GB,54.281756200000004,-0.398283,9.0
"NHS Sheffield Clinical Commissioning Group, UK",Sheffield,Sheffield,South Yorkshire,GB,53.382772100000004,-1.4107299999999998,9.0
"NHS Shropshire Clinical Commissioning Group, UK",Shrewsbury,Shrewsbury,Shropshire,GB,52.7058626,-2.7893673,9.0
"NHS Slough Clinical Commissioning Group, Windsor, SL4 3DP, UK",Windsor,Windsor,Windsor and Maidenhead,GB,51.47330770000001,-0.6155565,9.0
"NHS Solihull Clinical Commissioning Group, UK",,Solihull,West Midlands,GB,52.411811,-1.77761,5.0
"NHS Somerset Clinical Commissioning Group, UK",Yeovil,Lufton,Somerset,GB,50.949011,-2.6768347,9.0
"NHS South Cheshire Clinical Commissioning Group, UK",Nantwich,Nantwich,,GB,53.07567599999999,-2.5186481,9.0
"NHS South Devon and Torbay Clinical Commissioning Group, UK",Torquay,Torquay,Torbay,GB,50.48467429999999,-3.5684144,9.0
"NHS South East Staffordshire and Seisdon Peninsula Clinical Commissioning Group, UK",Tamworth,Tamworth,Staffordshire,GB,52.634299,-1.6979776999999998,9.0
"NHS South Eastern Hampshire Clinical Commissioning Group, UK",Aldershot,Aldershot,Hampshire,GB,51.2542453,-0.7661281999999999,9.0
"NHS South Gloucestershire Clinical Commissioning Group, UK",Bristol,Bristol,City of Bristol,GB,51.4600794,-2.5915505000000003,9.0
"NHS South Kent Coast Clinical Commissioning Group, UK",Dover,Whitfield,,GB,51.1543124,1.2940026000000002,9.0
"NHS South Lincolnshire Clinical Commissioning Group, UK",,Sleaford,,GB,53.009359700000005,-0.3923007,9.0
"NHS South Norfolk Clinical Commissioning Group, UK",Norwich,Norwich,Norfolk,GB,52.62933,1.3702923999999999,9.0
"NHS South Reading Clinical Commissioning Group, UK",Reading,Reading,Reading,GB,51.4468653,-0.9985014,9.0
"NHS South Sefton Clinical Commissioning Group, UK",Bootle,Bootle,Merseyside,GB,53.448246600000004,-2.9902754000000002,9.0
"NHS South Tees Clinical Commissioning Group, UK",Middlesbrough,Middlesbrough,Middlesbrough,GB,54.571730599999995,-1.2162083000000001,9.0
"NHS South Tyneside Clinical Commissioning Group, UK",Jarrow,Jarrow,,GB,54.966496299999996,-1.5030263000000001,9.0
"NHS South Warwickshire Clinical Commissioning Group, UK",Warwick,Warwick,Warwickshire,GB,52.281037,-1.5907582,9.0
"NHS South West Lincolnshire Clinical Commissioning Group, UK",,Sleaford,,GB,53.009463000000004,-0.3924037,9.0
"NHS South Worcestershire Clinical Commissioning Group, UK",Worcester,Perdiswell,Worcestershire,GB,52.2164126,-2.2158357000000004,9.0
"NHS Southampton Clinical Commissioning Group, UK",Southampton,Southampton,,GB,50.923358799999995,-1.4487763,9.0
"NHS Southend Clinical Commissioning Group, UK",Southend-on-Sea,Southend-on-Sea,Southend-on-Sea,GB,51.54470420000001,0.7088825,9.0
"NHS Southern Derbyshire Clinical Commissioning Group, UK",Derby,Derby,Derby,GB,52.92560839999999,-1.4682589,9.0
"NHS Southport and Formby Clinical Commissioning Group, UK",Southport,Southport,Merseyside,GB,53.6390064,-2.9849602,9.0
"NHS Southwark Clinical Commissioning Group, UK",London,London,Greater London,GB,51.50358259999999,-0.0806074,9.0
"NHS St Helens Clinical Commissioning Group, UK",Saint Helens,Saint Helens,,GB,53.45356289999999,-2.7347732999999996,9.0
"NHS Stafford and Surrounds Clinical Commissioning Group, UK",,,,,,,
"NHS Stockport Clinical Commissioning Group, UK",Stockport,Stockport,Greater Manchester,GB,53.4066997,-2.1574484,9.0
"NHS Stoke on Trent Clinical Commissioning Group, UK",Stoke-on-Trent,Stoke-on-Trent,,GB,53.02167559999999,-2.1783088,9.0
"NHS Sunderland Clinical Commissioning Group, UK",Sunderland,Sunderland,,GB,54.91469059999999,-1.4367192,9.0
"NHS Surrey Downs Clinical Commissioning Group, UK",Leatherhead,Fetcham,Surrey,GB,51.2930643,-0.3349837,9.0
"NHS Surrey Heath Clinical Commissioning Group, UK",Camberley,Camberley,Surrey,GB,51.33944049999999,-0.7430099,9.0
"NHS Sutton Clinical Commissioning Group, UK",Sutton,Sutton,Greater London,GB,51.3691014,-0.22330360000000002,9.0
"NHS Swale Clinical Commissioning Group, UK",Sittingbourne,Sittingbourne,,GB,51.3626146,0.7350156,9.0
"NHS Swindon Clinical Commissioning Group, UK",Swindon,Swindon,Swindon,GB,51.6028787,-1.7863058,9.0
"NHS Tameside and Glossop Clinical Commissioning Group, UK",,Dukinfield,,GB,53.477915,-2.0922511000000004,9.0
"NHS Telford and Wrekin Clinical Commissioning Group, UK",Telford,Telford,Shropshire,GB,52.6426951,-2.4231714,9.0
"NHS Thanet Clinical Commissioning Group, UK",Margate,Margate,Kent,GB,51.3872735,1.38232,9.0
"NHS Thurrock Clinical Commissioning Group, UK",,Grays,,GB,51.4756751,0.3247842,9.0
"NHS Tower Hamlets Clinical Commissioning Group, UK",London,London,,GB,51.5245532,-0.042878,9.0
"NHS Trafford Clinical Commissioning Group, UK",,Stretford,,GB,53.457899600000005,-2.2876392000000005,9.0
"NHS Vale of York Clinical Commissioning Group, UK",York,York,York,GB,53.95861479999999,-1.0888701,9.0
"NHS Vale Royal Clinical Commissioning Group, UK",Nantwich,Nantwich,,GB,53.07567599999999,-2.5186481,9.0
"NHS Wakefield Clinical Commissioning Group, UK",Wakefield,Wakefield,West Yorkshire,GB,53.6801877,-1.4963808,9.0
"NHS Walsall Clinical Commissioning Group, UK",Walsall,Walsall,West Midlands,GB,52.5979311,-2.0145971,9.0
"NHS Waltham Forest Clinical Commissioning Group, UK",London,London,Greater London,GB,51.569509100000005,0.0096879,9.0
"NHS Wandsworth Clinical Commissioning Group, UK",London,London,Greater London,GB,51.419386900000006,-0.2001506,9.0
"NHS Warrington Clinical Commissioning Group, UK",Warrington,Birchwood,Warrington,GB,53.4153998,-2.5359203999999997,9.0
"NHS Warwickshire North Clinical Commissioning Group, UK",Nuneaton,Nuneaton,Warwickshire,GB,52.52329350000001,-1.4676562,9.0
"NHS West Cheshire Clinical Commissioning Group, UK",Chester,Chester,Cheshire West and Chester,GB,53.2114775,-2.8986212000000005,9.0
"NHS West Essex Clinical Commissioning Group, UK",Epping,Epping,,GB,51.703089399999996,0.12396320000000001,9.0
"NHS West Hampshire Clinical Commissioning Group, UK",Eastleigh,Eastleigh,Hampshire,GB,50.967425799999994,-1.3510754999999999,9.0
"NHS West Kent Clinical Commissioning Group, UK",Tonbridge,Tonbridge,Kent,GB,51.1949104,0.2764821000000001,9.0
"NHS West Lancashire Clinical Commissioning Group, UK",Ormskirk,Ormskirk,,GB,53.565595900000005,-2.8732615000000004,9.0
"NHS West Leicestershire Clinical Commissioning Group, UK",Loughborough,Loughborough,Leicestershire,GB,52.7697087,-1.2051236,9.0
"NHS West London Clinical Commissioning Group, UK",London,London,Greater London,GB,51.522847799999994,-0.1516388,9.0
"NHS West Norfolk Clinical Commissioning Group, UK",King's Lynn,King's Lynn,Norfolk,GB,52.7565063,0.3967426,9.0
"NHS West Suffolk Clinical Commissioning Group, UK",Bury Saint Edmunds,Bury Saint Edmunds,,GB,52.251759,0.696701,9.0
"NHS Wigan Borough Clinical Commissioning Group, UK",Wigan,Wigan,Greater Manchester,GB,53.544619,-2.6292499,9.0
"NHS Wiltshire Clinical Commissioning Group, UK",Swindon,Swindon,Swindon,GB,51.6028787,-1.7863058,9.0
"NHS Windsor, Ascot and Maidenhead Clinical Commissioning Group, UK",Windsor,Windsor,Windsor and Maidenhead,GB,51.47330770000001,-0.6155565,9.0
"NHS Wirral Clinical Commissioning Group, UK",Birkenhead,Birkenhead,Merseyside,GB,53.39091149999999,-3.0163867000000004,9.0
"NHS Wokingham Clinical Commissioning Group, UK",London,London,Greater London,GB,51.52535820000001,-0.1392636,9.0
"NHS Wolverhampton Clinical Commissioning Group, UK",Wolverhampton,Wolverhampton,West Midlands,GB,52.59583879999999,-2.0802419,9.0
"NHS Wyre Forest Clinical Commissioning Group, UK",Kidderminster,Kidderminster,Worcestershire,GB,52.387912899999996,-2.2456709,9.0
"NHS Central Manchester Clinical Commissioning Group, UK",Manchester,Manchester,Greater Manchester,GB,53.44768489999999,-2.2452403,9.0
"NHS Cumbria Clinical Commissioning Group, UK",Carlisle,Carlisle,Cumbria,GB,54.89220329999999,-2.8953396000000002,9.0
"NHS North Manchester Clinical Commissioning Group, UK",Manchester,Manchester,Greater Manchester,GB,53.44768489999999,-2.2452403,9.0
"NHS South Manchester Clinical Commissioning Group, UK",Manchester,Manchester,Greater Manchester,GB,53.44768489999999,-2.2452403,9.0
"NHS Coastal West Sussex, UK",Worthing,Worthing,,GB,50.81813229999999,-0.4111287,9.0
"NHS Gateshead, UK",Gateshead,Gateshead,Tyne and Wear,GB,54.944826,-1.6156584999999999,9.0
"NHS Guildford and Waverley, UK",Guildford,Guildford,,GB,51.238282,-0.5758227,9.0
"NHS Newcastle North and East, UK",Newcastle upon Tyne,Newcastle upon Tyne,,GB,54.969674,-1.7127622999999998,9.0
"NHS Newcastle West, UK",Newcastle upon Tyne,Newcastle upon Tyne,,GB,54.9696784,-1.7127091,9.0
